0 SL-12 R/B(2)
1 11570U 77071F   13281.68564733 -.00000046  00000-0  10000-3 0  3105
2 11570 014.7106 335.1016 0009506 043.2472 316.8324 00.97736413 74116
0 SL-12 R/B(2)
1 11570U 77071F   13282.70876857 -.00000054  00000-0  10000-3 0  3112
2 11570 014.7099 335.0914 0009314 042.4208 317.6543 00.97736567 74121
0 SL-12 R/B(2)
1 11570U 77071F   13286.80121148 -.00000143  00000-0  10000-3 0  3134
2 11570 014.7072 335.0497 0009337 041.9001 318.1657 00.97738088 74164
0 SL-12 R/B(2)
1 11570U 77071F   13288.84739771 -.00000183  00000-0  10000-3 0  3142
2 11570 014.7056 335.0290 0009202 040.1157 319.9393 00.97738736 74189
0 SL-12 R/B(2)
1 11570U 77071F   13294.98596714 -.00000143  00000-0  10000-3 0  3159
2 11570 014.7011 334.9676 0009205 040.4902 319.5555 00.97738023 74242
0 SL-12 R/B(2)
1 11570U 77071F   13294.98596908 -.00000143  00000-0  10000-3 0  3165
2 11570 014.7016 334.9686 0009368 042.4056 317.6467 00.97738066 74248
